<?xml version="1.0"?>
<gpx version="1.1" creator="GDAL 2.2.2" xmlns:xsi="http://www.w3.org/2001/XMLSchema-instance" xmlns:ogr="http://osgeo.org/gdal" xmlns="http://www.topografix.com/GPX/1/1" xsi:schemaLocation="http://www.topografix.com/GPX/1/1 http://www.topografix.com/GPX/1/1/gpx.xsd">
<metadata><bounds minlat="50.080660000000002" minlon="14.416000000000000" maxlat="50.092039999999997" maxlon="14.435029999999999"/></metadata>                  
<trk>
  <name>Itinéraire de Hlavní nádraží, Prague-Prague 2, Tchéquie à Clementinum, Mariánské náměstí, Prague-Vieille Ville, Tchéquie</name>
  <trkseg>
    <trkpt lat="50.08306" lon="14.43503">
    </trkpt>
    <trkpt lat="50.08276" lon="14.43481">
    </trkpt>
    <trkpt lat="50.08274" lon="14.4348">
    </trkpt>
    <trkpt lat="50.08272" lon="14.43478">
    </trkpt>
    <trkpt lat="50.0827" lon="14.43477">
    </trkpt>
    <trkpt lat="50.08277" lon="14.43452">
    </trkpt>
    <trkpt lat="50.08284" lon="14.43426">
    </trkpt>
    <trkpt lat="50.083" lon="14.43379">
    </trkpt>
    <trkpt lat="50.08311" lon="14.43342">
    </trkpt>
    <trkpt lat="50.08313" lon="14.43336">
    </trkpt>
    <trkpt lat="50.08315" lon="14.43331">
    </trkpt>
    <trkpt lat="50.08311" lon="14.43326">
    </trkpt>
    <trkpt lat="50.08296" lon="14.43306">
    </trkpt>
    <trkpt lat="50.08297" lon="14.43295">
    </trkpt>
    <trkpt lat="50.08299" lon="14.43278">
    </trkpt>
    <trkpt lat="50.083" lon="14.43272">
    </trkpt>
    <trkpt lat="50.083" lon="14.43266">
    </trkpt>
    <trkpt lat="50.083" lon="14.4326">
    </trkpt>
    <trkpt lat="50.08299" lon="14.43256">
    </trkpt>
    <trkpt lat="50.08299" lon="14.43253">
    </trkpt>
    <trkpt lat="50.08297" lon="14.43246">
    </trkpt>
    <trkpt lat="50.08296" lon="14.43239">
    </trkpt>
    <trkpt lat="50.08295" lon="14.43233">
    </trkpt>
    <trkpt lat="50.08294" lon="14.43227">
    </trkpt>
    <trkpt lat="50.08295" lon="14.43216">
    </trkpt>
    <trkpt lat="50.08297" lon="14.432">
    </trkpt>
    <trkpt lat="50.08279" lon="14.4318">
    </trkpt>
    <trkpt lat="50.08272" lon="14.43169">
    </trkpt>
    <trkpt lat="50.08269" lon="14.43166">
    </trkpt>
    <trkpt lat="50.08194" lon="14.43067">
    </trkpt>
    <trkpt lat="50.08167" lon="14.43028">
    </trkpt>
    <trkpt lat="50.08164" lon="14.43024">
    </trkpt>
    <trkpt lat="50.08144" lon="14.42994">
    </trkpt>
    <trkpt lat="50.08135" lon="14.42982">
    </trkpt>
    <trkpt lat="50.08127" lon="14.42969">
    </trkpt>
    <trkpt lat="50.08096" lon="14.42921">
    </trkpt>
    <trkpt lat="50.08066" lon="14.42872">
    </trkpt>
    <trkpt lat="50.08075" lon="14.42859">
    </trkpt>
    <trkpt lat="50.08106" lon="14.42818">
    </trkpt>
    <trkpt lat="50.08111" lon="14.42811">
    </trkpt>
    <trkpt lat="50.08113" lon="14.42809">
    </trkpt>
    <trkpt lat="50.08127" lon="14.42789">
    </trkpt>
    <trkpt lat="50.08141" lon="14.42769">
    </trkpt>
    <trkpt lat="50.08152" lon="14.42752">
    </trkpt>
    <trkpt lat="50.08175" lon="14.42719">
    </trkpt>
    <trkpt lat="50.0816" lon="14.42695">
    </trkpt>
    <trkpt lat="50.08153" lon="14.42706">
    </trkpt>
    <trkpt lat="50.0815" lon="14.42701">
    </trkpt>
    <trkpt lat="50.08147" lon="14.42697">
    </trkpt>
    <trkpt lat="50.08142" lon="14.42691">
    </trkpt>
    <trkpt lat="50.08139" lon="14.42689">
    </trkpt>
    <trkpt lat="50.08135" lon="14.42685">
    </trkpt>
    <trkpt lat="50.08106" lon="14.42666">
    </trkpt>
    <trkpt lat="50.08087" lon="14.42654">
    </trkpt>
    <trkpt lat="50.08088" lon="14.4265">
    </trkpt>
    <trkpt lat="50.0809" lon="14.42647">
    </trkpt>
    <trkpt lat="50.08104" lon="14.4262">
    </trkpt>
    <trkpt lat="50.08122" lon="14.42584">
    </trkpt>
    <trkpt lat="50.08121" lon="14.42579">
    </trkpt>
    <trkpt lat="50.08122" lon="14.42571">
    </trkpt>
    <trkpt lat="50.08126" lon="14.42555">
    </trkpt>
    <trkpt lat="50.08141" lon="14.4252">
    </trkpt>
    <trkpt lat="50.08143" lon="14.42517">
    </trkpt>
    <trkpt lat="50.08144" lon="14.42514">
    </trkpt>
    <trkpt lat="50.08157" lon="14.42528">
    </trkpt>
    <trkpt lat="50.08168" lon="14.42541">
    </trkpt>
    <trkpt lat="50.0817" lon="14.42536">
    </trkpt>
    <trkpt lat="50.08172" lon="14.42532">
    </trkpt>
    <trkpt lat="50.08185" lon="14.42501">
    </trkpt>
    <trkpt lat="50.08201" lon="14.42465">
    </trkpt>
    <trkpt lat="50.08204" lon="14.42459">
    </trkpt>
    <trkpt lat="50.08205" lon="14.42457">
    </trkpt>
    <trkpt lat="50.08202" lon="14.42447">
    </trkpt>
    <trkpt lat="50.0821" lon="14.42438">
    </trkpt>
    <trkpt lat="50.08218" lon="14.42428">
    </trkpt>
    <trkpt lat="50.08217" lon="14.42418">
    </trkpt>
    <trkpt lat="50.08215" lon="14.42407">
    </trkpt>
    <trkpt lat="50.08213" lon="14.42399">
    </trkpt>
    <trkpt lat="50.08209" lon="14.42381">
    </trkpt>
    <trkpt lat="50.08206" lon="14.42364">
    </trkpt>
    <trkpt lat="50.08208" lon="14.42364">
    </trkpt>
    <trkpt lat="50.0821" lon="14.42363">
    </trkpt>
    <trkpt lat="50.08209" lon="14.42347">
    </trkpt>
    <trkpt lat="50.08208" lon="14.42331">
    </trkpt>
    <trkpt lat="50.08204" lon="14.42284">
    </trkpt>
    <trkpt lat="50.08201" lon="14.42239">
    </trkpt>
    <trkpt lat="50.08188" lon="14.42241">
    </trkpt>
    <trkpt lat="50.08172" lon="14.42243">
    </trkpt>
    <trkpt lat="50.08172" lon="14.4223">
    </trkpt>
    <trkpt lat="50.08171" lon="14.42209">
    </trkpt>
    <trkpt lat="50.0817" lon="14.42194">
    </trkpt>
    <trkpt lat="50.08171" lon="14.42181">
    </trkpt>
    <trkpt lat="50.08173" lon="14.42162">
    </trkpt>
    <trkpt lat="50.08178" lon="14.42121">
    </trkpt>
    <trkpt lat="50.08183" lon="14.42098">
    </trkpt>
    <trkpt lat="50.08186" lon="14.42083">
    </trkpt>
    <trkpt lat="50.08188" lon="14.4208">
    </trkpt>
    <trkpt lat="50.08189" lon="14.42076">
    </trkpt>
    <trkpt lat="50.08191" lon="14.42075">
    </trkpt>
    <trkpt lat="50.08193" lon="14.42074">
    </trkpt>
    <trkpt lat="50.08195" lon="14.42073">
    </trkpt>
    <trkpt lat="50.08197" lon="14.42072">
    </trkpt>
    <trkpt lat="50.08201" lon="14.42071">
    </trkpt>
    <trkpt lat="50.08204" lon="14.4207">
    </trkpt>
    <trkpt lat="50.08224" lon="14.42064">
    </trkpt>
    <trkpt lat="50.08227" lon="14.42064">
    </trkpt>
    <trkpt lat="50.08247" lon="14.42061">
    </trkpt>
    <trkpt lat="50.08258" lon="14.42058">
    </trkpt>
    <trkpt lat="50.08268" lon="14.42055">
    </trkpt>
    <trkpt lat="50.08324" lon="14.42037">
    </trkpt>
    <trkpt lat="50.08339" lon="14.42031">
    </trkpt>
    <trkpt lat="50.0835" lon="14.42024">
    </trkpt>
    <trkpt lat="50.08355" lon="14.4202">
    </trkpt>
    <trkpt lat="50.08358" lon="14.42018">
    </trkpt>
    <trkpt lat="50.08361" lon="14.42015">
    </trkpt>
    <trkpt lat="50.08419" lon="14.42023">
    </trkpt>
    <trkpt lat="50.08425" lon="14.42031">
    </trkpt>
    <trkpt lat="50.08436" lon="14.42038">
    </trkpt>
    <trkpt lat="50.08448" lon="14.4205">
    </trkpt>
    <trkpt lat="50.08472" lon="14.42081">
    </trkpt>
    <trkpt lat="50.08479" lon="14.4209">
    </trkpt>
    <trkpt lat="50.08509" lon="14.4213">
    </trkpt>
    <trkpt lat="50.08515" lon="14.4214">
    </trkpt>
    <trkpt lat="50.08517" lon="14.42149">
    </trkpt>
    <trkpt lat="50.08501" lon="14.42175">
    </trkpt>
    <trkpt lat="50.08483" lon="14.42207">
    </trkpt>
    <trkpt lat="50.08486" lon="14.42213">
    </trkpt>
    <trkpt lat="50.0849" lon="14.42219">
    </trkpt>
    <trkpt lat="50.08471" lon="14.42256">
    </trkpt>
    <trkpt lat="50.08444" lon="14.423">
    </trkpt>
    <trkpt lat="50.08419" lon="14.42347">
    </trkpt>
    <trkpt lat="50.08458" lon="14.42408">
    </trkpt>
    <trkpt lat="50.08469" lon="14.42423">
    </trkpt>
    <trkpt lat="50.08506" lon="14.42478">
    </trkpt>
    <trkpt lat="50.08517" lon="14.4246">
    </trkpt>
    <trkpt lat="50.0854" lon="14.42427">
    </trkpt>
    <trkpt lat="50.08579" lon="14.4237">
    </trkpt>
    <trkpt lat="50.08585" lon="14.42381">
    </trkpt>
    <trkpt lat="50.086" lon="14.42405">
    </trkpt>
    <trkpt lat="50.08614" lon="14.42425">
    </trkpt>
    <trkpt lat="50.08616" lon="14.42428">
    </trkpt>
    <trkpt lat="50.08619" lon="14.4243">
    </trkpt>
    <trkpt lat="50.08621" lon="14.42431">
    </trkpt>
    <trkpt lat="50.08622" lon="14.42432">
    </trkpt>
    <trkpt lat="50.08624" lon="14.42433">
    </trkpt>
    <trkpt lat="50.08625" lon="14.42434">
    </trkpt>
    <trkpt lat="50.08626" lon="14.42435">
    </trkpt>
    <trkpt lat="50.08637" lon="14.42455">
    </trkpt>
    <trkpt lat="50.08653" lon="14.4249">
    </trkpt>
    <trkpt lat="50.0867" lon="14.42525">
    </trkpt>
    <trkpt lat="50.08672" lon="14.42529">
    </trkpt>
    <trkpt lat="50.08673" lon="14.4253">
    </trkpt>
    <trkpt lat="50.08674" lon="14.4253">
    </trkpt>
    <trkpt lat="50.08675" lon="14.4253">
    </trkpt>
    <trkpt lat="50.08686" lon="14.42559">
    </trkpt>
    <trkpt lat="50.08687" lon="14.42561">
    </trkpt>
    <trkpt lat="50.08688" lon="14.42562">
    </trkpt>
    <trkpt lat="50.08688" lon="14.42563">
    </trkpt>
    <trkpt lat="50.08689" lon="14.42564">
    </trkpt>
    <trkpt lat="50.0869" lon="14.42565">
    </trkpt>
    <trkpt lat="50.08691" lon="14.42566">
    </trkpt>
    <trkpt lat="50.08692" lon="14.42566">
    </trkpt>
    <trkpt lat="50.0872" lon="14.42576">
    </trkpt>
    <trkpt lat="50.08723" lon="14.42596">
    </trkpt>
    <trkpt lat="50.08723" lon="14.42623">
    </trkpt>
    <trkpt lat="50.08737" lon="14.42629">
    </trkpt>
    <trkpt lat="50.08759" lon="14.42635">
    </trkpt>
    <trkpt lat="50.08778" lon="14.42639">
    </trkpt>
    <trkpt lat="50.08781" lon="14.42638">
    </trkpt>
    <trkpt lat="50.08793" lon="14.42663">
    </trkpt>
    <trkpt lat="50.08797" lon="14.42673">
    </trkpt>
    <trkpt lat="50.08805" lon="14.42687">
    </trkpt>
    <trkpt lat="50.08797" lon="14.42694">
    </trkpt>
    <trkpt lat="50.08798" lon="14.42712">
    </trkpt>
    <trkpt lat="50.08802" lon="14.42746">
    </trkpt>
    <trkpt lat="50.08805" lon="14.42765">
    </trkpt>
    <trkpt lat="50.08802" lon="14.42746">
    </trkpt>
    <trkpt lat="50.08798" lon="14.42712">
    </trkpt>
    <trkpt lat="50.08797" lon="14.42694">
    </trkpt>
    <trkpt lat="50.08805" lon="14.42687">
    </trkpt>
    <trkpt lat="50.08797" lon="14.42673">
    </trkpt>
    <trkpt lat="50.08793" lon="14.42663">
    </trkpt>
    <trkpt lat="50.08781" lon="14.42638">
    </trkpt>
    <trkpt lat="50.08788" lon="14.42636">
    </trkpt>
    <trkpt lat="50.0879" lon="14.42635">
    </trkpt>
    <trkpt lat="50.08793" lon="14.42633">
    </trkpt>
    <trkpt lat="50.08803" lon="14.42626">
    </trkpt>
    <trkpt lat="50.08809" lon="14.42622">
    </trkpt>
    <trkpt lat="50.08812" lon="14.4262">
    </trkpt>
    <trkpt lat="50.08818" lon="14.42618">
    </trkpt>
    <trkpt lat="50.08821" lon="14.42616">
    </trkpt>
    <trkpt lat="50.08832" lon="14.42612">
    </trkpt>
    <trkpt lat="50.08831" lon="14.42602">
    </trkpt>
    <trkpt lat="50.0883" lon="14.42594">
    </trkpt>
    <trkpt lat="50.08828" lon="14.42582">
    </trkpt>
    <trkpt lat="50.08823" lon="14.42549">
    </trkpt>
    <trkpt lat="50.08821" lon="14.42536">
    </trkpt>
    <trkpt lat="50.08819" lon="14.42524">
    </trkpt>
    <trkpt lat="50.08818" lon="14.42517">
    </trkpt>
    <trkpt lat="50.08815" lon="14.42485">
    </trkpt>
    <trkpt lat="50.08814" lon="14.42455">
    </trkpt>
    <trkpt lat="50.08838" lon="14.42454">
    </trkpt>
    <trkpt lat="50.08854" lon="14.42452">
    </trkpt>
    <trkpt lat="50.08863" lon="14.4245">
    </trkpt>
    <trkpt lat="50.08876" lon="14.42443">
    </trkpt>
    <trkpt lat="50.08886" lon="14.42437">
    </trkpt>
    <trkpt lat="50.08888" lon="14.42434">
    </trkpt>
    <trkpt lat="50.08891" lon="14.42429">
    </trkpt>
    <trkpt lat="50.08871" lon="14.42373">
    </trkpt>
    <trkpt lat="50.08867" lon="14.42362">
    </trkpt>
    <trkpt lat="50.08864" lon="14.42357">
    </trkpt>
    <trkpt lat="50.08861" lon="14.42353">
    </trkpt>
    <trkpt lat="50.08855" lon="14.42347">
    </trkpt>
    <trkpt lat="50.0885" lon="14.42341">
    </trkpt>
    <trkpt lat="50.08847" lon="14.42339">
    </trkpt>
    <trkpt lat="50.08841" lon="14.42336">
    </trkpt>
    <trkpt lat="50.08838" lon="14.42334">
    </trkpt>
    <trkpt lat="50.08836" lon="14.4233">
    </trkpt>
    <trkpt lat="50.08835" lon="14.4233">
    </trkpt>
    <trkpt lat="50.08833" lon="14.42328">
    </trkpt>
    <trkpt lat="50.08831" lon="14.42325">
    </trkpt>
    <trkpt lat="50.08823" lon="14.42312">
    </trkpt>
    <trkpt lat="50.08817" lon="14.42306">
    </trkpt>
    <trkpt lat="50.08812" lon="14.42302">
    </trkpt>
    <trkpt lat="50.08809" lon="14.42301">
    </trkpt>
    <trkpt lat="50.08806" lon="14.423">
    </trkpt>
    <trkpt lat="50.08798" lon="14.423">
    </trkpt>
    <trkpt lat="50.08794" lon="14.42285">
    </trkpt>
    <trkpt lat="50.0879" lon="14.4227">
    </trkpt>
    <trkpt lat="50.08778" lon="14.42219">
    </trkpt>
    <trkpt lat="50.08761" lon="14.4216">
    </trkpt>
    <trkpt lat="50.08734" lon="14.42086">
    </trkpt>
    <trkpt lat="50.0874" lon="14.42081">
    </trkpt>
    <trkpt lat="50.08747" lon="14.42076">
    </trkpt>
    <trkpt lat="50.08777" lon="14.42053">
    </trkpt>
    <trkpt lat="50.08783" lon="14.4205">
    </trkpt>
    <trkpt lat="50.08783" lon="14.42044">
    </trkpt>
    <trkpt lat="50.08849" lon="14.42">
    </trkpt>
    <trkpt lat="50.08874" lon="14.41984">
    </trkpt>
    <trkpt lat="50.08884" lon="14.41977">
    </trkpt>
    <trkpt lat="50.08893" lon="14.4197">
    </trkpt>
    <trkpt lat="50.08919" lon="14.41954">
    </trkpt>
    <trkpt lat="50.08945" lon="14.41937">
    </trkpt>
    <trkpt lat="50.08948" lon="14.41954">
    </trkpt>
    <trkpt lat="50.0895" lon="14.41959">
    </trkpt>
    <trkpt lat="50.08953" lon="14.41968">
    </trkpt>
    <trkpt lat="50.08957" lon="14.41978">
    </trkpt>
    <trkpt lat="50.08967" lon="14.42005">
    </trkpt>
    <trkpt lat="50.08973" lon="14.42019">
    </trkpt>
    <trkpt lat="50.08984" lon="14.42048">
    </trkpt>
    <trkpt lat="50.08993" lon="14.42073">
    </trkpt>
    <trkpt lat="50.08994" lon="14.42073">
    </trkpt>
    <trkpt lat="50.08995" lon="14.42073">
    </trkpt>
    <trkpt lat="50.08995" lon="14.42074">
    </trkpt>
    <trkpt lat="50.08996" lon="14.42074">
    </trkpt>
    <trkpt lat="50.08997" lon="14.42074">
    </trkpt>
    <trkpt lat="50.08997" lon="14.42075">
    </trkpt>
    <trkpt lat="50.08998" lon="14.42075">
    </trkpt>
    <trkpt lat="50.08998" lon="14.42076">
    </trkpt>
    <trkpt lat="50.08999" lon="14.42076">
    </trkpt>
    <trkpt lat="50.08999" lon="14.42077">
    </trkpt>
    <trkpt lat="50.09" lon="14.42078">
    </trkpt>
    <trkpt lat="50.09" lon="14.42079">
    </trkpt>
    <trkpt lat="50.09001" lon="14.42079">
    </trkpt>
    <trkpt lat="50.09001" lon="14.4208">
    </trkpt>
    <trkpt lat="50.09005" lon="14.42076">
    </trkpt>
    <trkpt lat="50.09007" lon="14.42079">
    </trkpt>
    <trkpt lat="50.09008" lon="14.4208">
    </trkpt>
    <trkpt lat="50.09009" lon="14.4208">
    </trkpt>
    <trkpt lat="50.0901" lon="14.4208">
    </trkpt>
    <trkpt lat="50.09011" lon="14.4208">
    </trkpt>
    <trkpt lat="50.09012" lon="14.4208">
    </trkpt>
    <trkpt lat="50.09016" lon="14.42077">
    </trkpt>
    <trkpt lat="50.09035" lon="14.42068">
    </trkpt>
    <trkpt lat="50.09039" lon="14.42066">
    </trkpt>
    <trkpt lat="50.09035" lon="14.42068">
    </trkpt>
    <trkpt lat="50.09016" lon="14.42077">
    </trkpt>
    <trkpt lat="50.09012" lon="14.4208">
    </trkpt>
    <trkpt lat="50.09011" lon="14.4208">
    </trkpt>
    <trkpt lat="50.0901" lon="14.4208">
    </trkpt>
    <trkpt lat="50.09009" lon="14.4208">
    </trkpt>
    <trkpt lat="50.09008" lon="14.4208">
    </trkpt>
    <trkpt lat="50.09007" lon="14.42079">
    </trkpt>
    <trkpt lat="50.09005" lon="14.42076">
    </trkpt>
    <trkpt lat="50.09001" lon="14.4208">
    </trkpt>
    <trkpt lat="50.09001" lon="14.42081">
    </trkpt>
    <trkpt lat="50.09002" lon="14.42082">
    </trkpt>
    <trkpt lat="50.09002" lon="14.42083">
    </trkpt>
    <trkpt lat="50.09002" lon="14.42084">
    </trkpt>
    <trkpt lat="50.09002" lon="14.42085">
    </trkpt>
    <trkpt lat="50.09003" lon="14.42086">
    </trkpt>
    <trkpt lat="50.09003" lon="14.42087">
    </trkpt>
    <trkpt lat="50.09003" lon="14.42088">
    </trkpt>
    <trkpt lat="50.09003" lon="14.42089">
    </trkpt>
    <trkpt lat="50.09003" lon="14.4209">
    </trkpt>
    <trkpt lat="50.09002" lon="14.42091">
    </trkpt>
    <trkpt lat="50.09002" lon="14.42092">
    </trkpt>
    <trkpt lat="50.09002" lon="14.42093">
    </trkpt>
    <trkpt lat="50.09002" lon="14.42094">
    </trkpt>
    <trkpt lat="50.09002" lon="14.42095">
    </trkpt>
    <trkpt lat="50.0901" lon="14.42103">
    </trkpt>
    <trkpt lat="50.09012" lon="14.42104">
    </trkpt>
    <trkpt lat="50.09013" lon="14.42107">
    </trkpt>
    <trkpt lat="50.09017" lon="14.42117">
    </trkpt>
    <trkpt lat="50.09022" lon="14.42128">
    </trkpt>
    <trkpt lat="50.09025" lon="14.42137">
    </trkpt>
    <trkpt lat="50.09036" lon="14.42166">
    </trkpt>
    <trkpt lat="50.09056" lon="14.42214">
    </trkpt>
    <trkpt lat="50.09067" lon="14.4224">
    </trkpt>
    <trkpt lat="50.09061" lon="14.42255">
    </trkpt>
    <trkpt lat="50.09063" lon="14.42279">
    </trkpt>
    <trkpt lat="50.09081" lon="14.42286">
    </trkpt>
    <trkpt lat="50.09094" lon="14.42294">
    </trkpt>
    <trkpt lat="50.0912" lon="14.42312">
    </trkpt>
    <trkpt lat="50.09124" lon="14.42315">
    </trkpt>
    <trkpt lat="50.09125" lon="14.42316">
    </trkpt>
    <trkpt lat="50.09125" lon="14.42317">
    </trkpt>
    <trkpt lat="50.09126" lon="14.42319">
    </trkpt>
    <trkpt lat="50.09126" lon="14.42323">
    </trkpt>
    <trkpt lat="50.09127" lon="14.42327">
    </trkpt>
    <trkpt lat="50.09128" lon="14.42329">
    </trkpt>
    <trkpt lat="50.09129" lon="14.4233">
    </trkpt>
    <trkpt lat="50.09132" lon="14.42334">
    </trkpt>
    <trkpt lat="50.09149" lon="14.42343">
    </trkpt>
    <trkpt lat="50.09186" lon="14.42353">
    </trkpt>
    <trkpt lat="50.09197" lon="14.4238">
    </trkpt>
    <trkpt lat="50.09204" lon="14.42397">
    </trkpt>
    <trkpt lat="50.09197" lon="14.4238">
    </trkpt>
    <trkpt lat="50.09186" lon="14.42353">
    </trkpt>
    <trkpt lat="50.09186" lon="14.4235">
    </trkpt>
    <trkpt lat="50.09187" lon="14.42347">
    </trkpt>
    <trkpt lat="50.09187" lon="14.4234">
    </trkpt>
    <trkpt lat="50.09187" lon="14.42326">
    </trkpt>
    <trkpt lat="50.09188" lon="14.42281">
    </trkpt>
    <trkpt lat="50.09188" lon="14.42279">
    </trkpt>
    <trkpt lat="50.09189" lon="14.42264">
    </trkpt>
    <trkpt lat="50.09189" lon="14.42255">
    </trkpt>
    <trkpt lat="50.09189" lon="14.42225">
    </trkpt>
    <trkpt lat="50.09172" lon="14.42218">
    </trkpt>
    <trkpt lat="50.09163" lon="14.42217">
    </trkpt>
    <trkpt lat="50.09151" lon="14.42215">
    </trkpt>
    <trkpt lat="50.09141" lon="14.42215">
    </trkpt>
    <trkpt lat="50.09124" lon="14.42217">
    </trkpt>
    <trkpt lat="50.09124" lon="14.4221">
    </trkpt>
    <trkpt lat="50.09122" lon="14.42184">
    </trkpt>
    <trkpt lat="50.09119" lon="14.42144">
    </trkpt>
    <trkpt lat="50.09114" lon="14.42099">
    </trkpt>
    <trkpt lat="50.09109" lon="14.4205">
    </trkpt>
    <trkpt lat="50.09107" lon="14.42037">
    </trkpt>
    <trkpt lat="50.09103" lon="14.42013">
    </trkpt>
    <trkpt lat="50.091" lon="14.41991">
    </trkpt>
    <trkpt lat="50.09092" lon="14.41946">
    </trkpt>
    <trkpt lat="50.09091" lon="14.4194">
    </trkpt>
    <trkpt lat="50.09081" lon="14.41889">
    </trkpt>
    <trkpt lat="50.09079" lon="14.41876">
    </trkpt>
    <trkpt lat="50.09077" lon="14.41869">
    </trkpt>
    <trkpt lat="50.09075" lon="14.41864">
    </trkpt>
    <trkpt lat="50.09073" lon="14.41856">
    </trkpt>
    <trkpt lat="50.09067" lon="14.41845">
    </trkpt>
    <trkpt lat="50.09055" lon="14.41818">
    </trkpt>
    <trkpt lat="50.09054" lon="14.41816">
    </trkpt>
    <trkpt lat="50.09053" lon="14.41814">
    </trkpt>
    <trkpt lat="50.09053" lon="14.41811">
    </trkpt>
    <trkpt lat="50.09053" lon="14.41808">
    </trkpt>
    <trkpt lat="50.09053" lon="14.41806">
    </trkpt>
    <trkpt lat="50.09054" lon="14.41802">
    </trkpt>
    <trkpt lat="50.09054" lon="14.418">
    </trkpt>
    <trkpt lat="50.09055" lon="14.41799">
    </trkpt>
    <trkpt lat="50.09056" lon="14.41795">
    </trkpt>
    <trkpt lat="50.09064" lon="14.41779">
    </trkpt>
    <trkpt lat="50.09072" lon="14.41761">
    </trkpt>
    <trkpt lat="50.09066" lon="14.41756">
    </trkpt>
    <trkpt lat="50.09048" lon="14.41738">
    </trkpt>
    <trkpt lat="50.09036" lon="14.41729">
    </trkpt>
    <trkpt lat="50.09029" lon="14.41722">
    </trkpt>
    <trkpt lat="50.09024" lon="14.41717">
    </trkpt>
    <trkpt lat="50.09021" lon="14.41715">
    </trkpt>
    <trkpt lat="50.09019" lon="14.41713">
    </trkpt>
    <trkpt lat="50.09017" lon="14.41712">
    </trkpt>
    <trkpt lat="50.09015" lon="14.41711">
    </trkpt>
    <trkpt lat="50.09013" lon="14.41711">
    </trkpt>
    <trkpt lat="50.09012" lon="14.41711">
    </trkpt>
    <trkpt lat="50.0901" lon="14.41712">
    </trkpt>
    <trkpt lat="50.09009" lon="14.41712">
    </trkpt>
    <trkpt lat="50.09008" lon="14.41714">
    </trkpt>
    <trkpt lat="50.09006" lon="14.41714">
    </trkpt>
    <trkpt lat="50.09005" lon="14.41716">
    </trkpt>
    <trkpt lat="50.09004" lon="14.41717">
    </trkpt>
    <trkpt lat="50.09002" lon="14.41719">
    </trkpt>
    <trkpt lat="50.09001" lon="14.41721">
    </trkpt>
    <trkpt lat="50.09001" lon="14.41724">
    </trkpt>
    <trkpt lat="50.09" lon="14.41727">
    </trkpt>
    <trkpt lat="50.09" lon="14.41734">
    </trkpt>
    <trkpt lat="50.09" lon="14.41745">
    </trkpt>
    <trkpt lat="50.08997" lon="14.41816">
    </trkpt>
    <trkpt lat="50.08997" lon="14.4183">
    </trkpt>
    <trkpt lat="50.08997" lon="14.41836">
    </trkpt>
    <trkpt lat="50.08974" lon="14.41836">
    </trkpt>
    <trkpt lat="50.08963" lon="14.41836">
    </trkpt>
    <trkpt lat="50.08957" lon="14.41837">
    </trkpt>
    <trkpt lat="50.08923" lon="14.4184">
    </trkpt>
    <trkpt lat="50.0892" lon="14.4184">
    </trkpt>
    <trkpt lat="50.08912" lon="14.41813">
    </trkpt>
    <trkpt lat="50.08909" lon="14.41802">
    </trkpt>
    <trkpt lat="50.089" lon="14.41767">
    </trkpt>
    <trkpt lat="50.0889" lon="14.41768">
    </trkpt>
    <trkpt lat="50.08883" lon="14.41769">
    </trkpt>
    <trkpt lat="50.08852" lon="14.41771">
    </trkpt>
    <trkpt lat="50.08831" lon="14.41772">
    </trkpt>
    <trkpt lat="50.08821" lon="14.41769">
    </trkpt>
    <trkpt lat="50.08814" lon="14.41765">
    </trkpt>
    <trkpt lat="50.08811" lon="14.41764">
    </trkpt>
    <trkpt lat="50.08809" lon="14.41764">
    </trkpt>
    <trkpt lat="50.08807" lon="14.41765">
    </trkpt>
    <trkpt lat="50.08738" lon="14.41793">
    </trkpt>
    <trkpt lat="50.08733" lon="14.41766">
    </trkpt>
    <trkpt lat="50.0873" lon="14.4175">
    </trkpt>
    <trkpt lat="50.08728" lon="14.41733">
    </trkpt>
    <trkpt lat="50.08723" lon="14.41735">
    </trkpt>
    <trkpt lat="50.08704" lon="14.41741">
    </trkpt>
    <trkpt lat="50.08699" lon="14.41687">
    </trkpt>
    <trkpt lat="50.08685" lon="14.41681">
    </trkpt>
    <trkpt lat="50.08683" lon="14.4168">
    </trkpt>
    <trkpt lat="50.08675" lon="14.41676">
    </trkpt>
    <trkpt lat="50.08671" lon="14.41674">
    </trkpt>
    <trkpt lat="50.08663" lon="14.41672">
    </trkpt>
    <trkpt lat="50.08658" lon="14.41672">
    </trkpt>
    <trkpt lat="50.08648" lon="14.41671">
    </trkpt>
    <trkpt lat="50.08646" lon="14.4167">
    </trkpt>
    <trkpt lat="50.08644" lon="14.41669">
    </trkpt>
    <trkpt lat="50.08643" lon="14.41668">
    </trkpt>
    <trkpt lat="50.08642" lon="14.41667">
    </trkpt>
    <trkpt lat="50.08641" lon="14.41666">
    </trkpt>
    <trkpt lat="50.0864" lon="14.41664">
    </trkpt>
    <trkpt lat="50.08639" lon="14.41662">
    </trkpt>
    <trkpt lat="50.08638" lon="14.41658">
    </trkpt>
    <trkpt lat="50.08637" lon="14.4161">
    </trkpt>
    <trkpt lat="50.08638" lon="14.416">
    </trkpt>
  </trkseg>
</trk>
</gpx>
